[{"OBJECT_NAME":"STARLINK-30349","OBJECT_ID":"2023-129R","EPOCH":"2026-03-09T22:00:01.999584","MEAN_MOTION":15.26741931,"ECCENTRICITY":0.00012812,"INCLINATION":43,"RA_OF_ASC_NODE":116.7269,"ARG_OF_PERICENTER":260.7577,"MEAN_ANOMALY":184.0339,"EPHEMERIS_TYPE":0,"CLASSIFICATION_TYPE":"U","NORAD_CAT_ID":57713,"ELEMENT_SET_NO":999,"REV_AT_EPOCH":567,"BSTAR":0.00020725572,"MEAN_MOTION_DOT":5.304e-5,"MEAN_MOTION_DDOT":0},{"OBJECT_NAME":"FALCONSAT-10","OBJECT_ID":"2023-174AM","EPOCH":"2026-03-09T16:51:34.085376","MEAN_MOTION":15.26670596,"ECCENTRICITY":0.00089318,"INCLINATION":97.3865,"RA_OF_ASC_NODE":145.7938,"ARG_OF_PERICENTER":169.5942,"MEAN_ANOMALY":190.5483,"EPHEMERIS_TYPE":0,"CLASSIFICATION_TYPE":"U","NORAD_CAT_ID":58291,"ELEMENT_SET_NO":999,"REV_AT_EPOCH":12958,"BSTAR":0.00025968794,"MEAN_MOTION_DOT":6.748e-5,"MEAN_MOTION_DDOT":0}]
